{"type": "FeatureCollection", "features": [ {"type": "Feature", "properties": {"norad_id": 66603, "name": "STARLINK-36048", "group": "last-30-days", "lat": -37.4112169820088, "lon": 97.50077724195678, "alt_km": 378.3897613792851, "timestamp": "2025-12-07T16:44:02.690836+00:00", "meta": {"OBJECT_NAME": "STARLINK-36048", "OBJECT_ID": "2025-270R", "EPOCH": "2025-12-06T22:00:01.999584", "MEAN_MOTION": 15.67153024, "ECCENTRICITY": 0.00013789, "INCLINATION": 42.9987, "RA_OF_ASC_NODE": 226.9999, "ARG_OF_PERICENTER": 268.4264, "MEAN_ANOMALY": 250.2571, "EPHEMERIS_TYPE": 0, "CLASSIFICATION_TYPE": "U", "NORAD_CAT_ID": 66603, "ELEMENT_SET_NO": 999, "REV_AT_EPOCH": 336, "BSTAR": -0.02071167, "MEAN_MOTION_DOT": -0.02007996, "MEAN_MOTION_DDOT": 0}, "tle": {"line1": "1 66603U 25270R   25340.91668981 -.02007996  00000+0 -20712-1 0  9996", "line2": "2 66603  42.9987 226.9999 0001378 268.4264 250.2571 15.67153024  3367"}}, "geometry": {"type": "Point", "coordinates": [97.50077724195678, -37.4112169820088]}}, {"type": "Feature", "properties": {"norad_id": 66604, "name": "STARLINK-35977", "group": "last-30-days", "lat": -38.13800155699324, "lon": 99.74522710848136, "alt_km": 378.41096186315553, "timestamp": "2025-12-07T16:44:02.690846+00:00", "meta": {"OBJECT_NAME": "STARLINK-35977", "OBJECT_ID": "2025-270S", "EPOCH": "2025-12-06T22:00:01.999584", "MEAN_MOTION": 15.67152369, "ECCENTRICITY": 0.00012796, "INCLINATION": 42.999, "RA_OF_ASC_NODE": 226.9953, "ARG_OF_PERICENTER": 264.7196, "MEAN_ANOMALY": 255.8805, "EPHEMERIS_TYPE": 0, "CLASSIFICATION_TYPE": "U", "NORAD_CAT_ID": 66604, "ELEMENT_SET_NO": 999, "REV_AT_EPOCH": 346, "BSTAR": -0.020689052, "MEAN_MOTION_DOT": -0.02005944, "MEAN_MOTION_DDOT": 0}, "tle": {"line1": "1 66604U 25270S   25340.91668981 -.02005944  00000+0 -20689-1 0  9991", "line2": "2 66604  42.9990 226.9953 0001279 264.7196 255.8805 15.67152369  3468"}}, "geometry": {"type": "Point", "coordinates": [99.74522710848136, -38.13800155699324]}}, {"type": "Feature", "properties": {"norad_id": 66605, "name": "STARLINK-36052", "group": "last-30-days", "lat": -38.82126309525324, "lon": 102.03532438498611, "alt_km": 378.38853232790916, "timestamp": "2025-12-07T16:44:02.690858+00:00", "meta": {"OBJECT_NAME": "STARLINK-36052", "OBJECT_ID": "2025-270T", "EPOCH": "2025-12-06T22:00:01.999584", "MEAN_MOTION": 15.67149501, "ECCENTRICITY": 0.00012839, "INCLINATION": 42.999, "RA_OF_ASC_NODE": 226.9908, "ARG_OF_PERICENTER": 261.7947, "MEAN_ANOMALY": 260.7249, "EPHEMERIS_TYPE": 0, "CLASSIFICATION_TYPE": "U", "NORAD_CAT_ID": 66605, "ELEMENT_SET_NO": 999, "REV_AT_EPOCH": 346, "BSTAR": -0.02064244, "MEAN_MOTION_DOT": -0.02001768, "MEAN_MOTION_DDOT": 0}, "tle": {"line1": "1 66605U 25270T   25340.91668981 -.02001768  00000+0 -20642-1 0  9991", "line2": "2 66605  42.9990 226.9908 0001283 261.7947 260.7249 15.67149501  3466"}}, "geometry": {"type": "Point", "coordinates": [102.03532438498611, -38.82126309525324]}}, {"type": "Feature", "properties": {"norad_id": 66606, "name": "STARLINK-36063", "group": "last-30-days", "lat": -40.043120432061876, "lon": 106.71944097176015, "alt_km": 378.4566628734219, "timestamp": "2025-12-07T16:44:02.690869+00:00", "meta": {"OBJECT_NAME": "STARLINK-36063", "OBJECT_ID": "2025-270U", "EPOCH": "2025-12-06T22:00:01.999584", "MEAN_MOTION": 15.67150626, "ECCENTRICITY": 0.00012559, "INCLINATION": 42.9988, "RA_OF_ASC_NODE": 226.981, "ARG_OF_PERICENTER": 262.4363, "MEAN_ANOMALY": 263.9164, "EPHEMERIS_TYPE": 0, "CLASSIFICATION_TYPE": "U", "NORAD_CAT_ID": 66606, "ELEMENT_SET_NO": 999, "REV_AT_EPOCH": 346, "BSTAR": -0.020671198, "MEAN_MOTION_DOT": -0.02004279, "MEAN_MOTION_DDOT": 0}, "tle": {"line1": "1 66606U 25270U   25340.91668981 -.02004279  00000+0 -20671-1 0  9994", "line2": "2 66606  42.9988 226.9810 0001255 262.4363 263.9164 15.67150626  3466"}}, "geometry": {"type": "Point", "coordinates": [106.71944097176015, -40.043120432061876]}}, {"type": "Feature", "properties": {"norad_id": 66607, "name": "STARLINK-35993", "group": "last-30-days", "lat": -39.45729942501611, "lon": 104.36207036611168, "alt_km": 378.36917958786034, "timestamp": "2025-12-07T16:44:02.690881+00:00", "meta": {"OBJECT_NAME": "STARLINK-35993", "OBJECT_ID": "2025-270V", "EPOCH": "2025-12-06T22:00:01.999584", "MEAN_MOTION": 15.67148285, "ECCENTRICITY": 0.00013215, "INCLINATION": 42.9991, "RA_OF_ASC_NODE": 226.9861, "ARG_OF_PERICENTER": 260.6281, "MEAN_ANOMALY": 263.8086, "EPHEMERIS_TYPE": 0, "CLASSIFICATION_TYPE": "U", "NORAD_CAT_ID": 66607, "ELEMENT_SET_NO": 999, "REV_AT_EPOCH": 336, "BSTAR": -0.0206213, "MEAN_MOTION_DOT": -0.01999908, "MEAN_MOTION_DDOT": 0}, "tle": {"line1": "1 66607U 25270V   25340.91668981 -.01999908  00000+0 -20621-1 0  9991", "line2": "2 66607  42.9991 226.9861 0001321 260.6281 263.8086 15.67148285  3369"}}, "geometry": {"type": "Point", "coordinates": [104.36207036611168, -39.45729942501611]}}, {"type": "Feature", "properties": {"norad_id": 66608, "name": "STARLINK-36036", "group": "last-30-days", "lat": -40.58181870946541, "lon": 109.12359254485783, "alt_km": 378.44833392752116, "timestamp": "2025-12-07T16:44:02.690891+00:00", "meta": {"OBJECT_NAME": "STARLINK-36036", "OBJECT_ID": "2025-270W", "EPOCH": "2025-12-06T22:00:01.999584", "MEAN_MOTION": 15.6715134, "ECCENTRICITY": 0.00012855, "INCLINATION": 42.9987, "RA_OF_ASC_NODE": 226.9765, "ARG_OF_PERICENTER": 260.7661, "MEAN_ANOMALY": 267.5032, "EPHEMERIS_TYPE": 0, "CLASSIFICATION_TYPE": "U", "NORAD_CAT_ID": 66608, "ELEMENT_SET_NO": 999, "REV_AT_EPOCH": 330, "BSTAR": -0.020684588, "MEAN_MOTION_DOT": -0.02005494, "MEAN_MOTION_DDOT": 0}, "tle": {"line1": "1 66608U 25270W   25340.91668981 -.02005494  00000+0 -20685-1 0  9991", "line2": "2 66608  42.9987 226.9765 0001285 260.7661 267.5032 15.67151340  3302"}}, "geometry": {"type": "Point", "coordinates": [109.12359254485783, -40.58181870946541]}}, {"type": "Feature", "properties": {"norad_id": 66609, "name": "STARLINK-36034", "group": "last-30-days", "lat": -41.071701403395366, "lon": 111.5741643338922, "alt_km": 378.4890385038343, "timestamp": "2025-12-07T16:44:02.690919+00:00", "meta": {"OBJECT_NAME": "STARLINK-36034", "OBJECT_ID": "2025-270X", "EPOCH": "2025-12-06T22:00:01.999584", "MEAN_MOTION": 15.67150828, "ECCENTRICITY": 0.00012363, "INCLINATION": 42.9989, "RA_OF_ASC_NODE": 226.9721, "ARG_OF_PERICENTER": 261.4995, "MEAN_ANOMALY": 268.6874, "EPHEMERIS_TYPE": 0, "CLASSIFICATION_TYPE": "U", "NORAD_CAT_ID": 66609, "ELEMENT_SET_NO": 999, "REV_AT_EPOCH": 330, "BSTAR": -0.020652148, "MEAN_MOTION_DOT": -0.02002655, "MEAN_MOTION_DDOT": 0}, "tle": {"line1": "1 66609U 25270X   25340.91668981 -.02002655  00000+0 -20652-1 0  9992", "line2": "2 66609  42.9989 226.9721 0001236 261.4995 268.6874 15.67150828  3307"}}, "geometry": {"type": "Point", "coordinates": [111.5741643338922, -41.071701403395366]}}, {"type": "Feature", "properties": {"norad_id": 66610, "name": "STARLINK-35680", "group": "last-30-days", "lat": -41.506808150026544, "lon": 114.04763384436062, "alt_km": 378.4740780681568, "timestamp": "2025-12-07T16:44:02.690935+00:00", "meta": {"OBJECT_NAME": "STARLINK-35680", "OBJECT_ID": "2025-270Y", "EPOCH": "2025-12-06T22:00:01.999584", "MEAN_MOTION": 15.67150028, "ECCENTRICITY": 0.00012865, "INCLINATION": 42.999, "RA_OF_ASC_NODE": 226.9669, "ARG_OF_PERICENTER": 262.2387, "MEAN_ANOMALY": 269.8666, "EPHEMERIS_TYPE": 0, "CLASSIFICATION_TYPE": "U", "NORAD_CAT_ID": 66610, "ELEMENT_SET_NO": 999, "REV_AT_EPOCH": 357, "BSTAR": -0.02065557, "MEAN_MOTION_DOT": -0.02002927, "MEAN_MOTION_DDOT": 0}, "tle": {"line1": "1 66610U 25270Y   25340.91668981 -.02002927  00000+0 -20656-1 0  9990", "line2": "2 66610  42.9990 226.9669 0001286 262.2387 269.8666 15.67150028  3574"}}, "geometry": {"type": "Point", "coordinates": [114.04763384436062, -41.506808150026544]}}, {"type": "Feature", "properties": {"norad_id": 66611, "name": "STARLINK-35583", "group": "last-30-days", "lat": -41.88819902685043, "lon": 116.55688670886279, "alt_km": 378.51725456981785, "timestamp": "2025-12-07T16:44:02.690946+00:00", "meta": {"OBJECT_NAME": "STARLINK-35583", "OBJECT_ID": "2025-270Z", "EPOCH": "2025-12-06T22:00:01.999584", "MEAN_MOTION": 15.67151631, "ECCENTRICITY": 0.00012421, "INCLINATION": 42.9987, "RA_OF_ASC_NODE": 226.9619, "ARG_OF_PERICENTER": 261.1176, "MEAN_ANOMALY": 272.9034, "EPHEMERIS_TYPE": 0, "CLASSIFICATION_TYPE": "U", "NORAD_CAT_ID": 66611, "ELEMENT_SET_NO": 999, "REV_AT_EPOCH": 357, "BSTAR": -0.020669129, "MEAN_MOTION_DOT": -0.02004165, "MEAN_MOTION_DDOT": 0}, "tle": {"line1": "1 66611U 25270Z   25340.91668981 -.02004165  00000+0 -20669-1 0  9991", "line2": "2 66611  42.9987 226.9619 0001242 261.1176 272.9034 15.67151631  3577"}}, "geometry": {"type": "Point", "coordinates": [116.55688670886279, -41.88819902685043]}}, {"type": "Feature", "properties": {"norad_id": 66612, "name": "STARLINK-36039", "group": "last-30-days", "lat": -42.21494204137512, "lon": 119.09758394782016, "alt_km": 378.5052931380578, "timestamp": "2025-12-07T16:44:02.690959+00:00", "meta": {"OBJECT_NAME": "STARLINK-36039", "OBJECT_ID": "2025-270AA", "EPOCH": "2025-12-06T22:00:01.999584", "MEAN_MOTION": 15.67148346, "ECCENTRICITY": 0.00012624, "INCLINATION": 42.9988, "RA_OF_ASC_NODE": 226.9567, "ARG_OF_PERICENTER": 260.2371, "MEAN_ANOMALY": 275.7025, "EPHEMERIS_TYPE": 0, "CLASSIFICATION_TYPE": "U", "NORAD_CAT_ID": 66612, "ELEMENT_SET_NO": 999, "REV_AT_EPOCH": 346, "BSTAR": -0.020622407, "MEAN_MOTION_DOT": -0.01999961, "MEAN_MOTION_DDOT": 0}, "tle": {"line1": "1 66612U 25270AA  25340.91668981 -.01999961  00000+0 -20622-1 0  9997", "line2": "2 66612  42.9988 226.9567 0001262 260.2371 275.7025 15.67148346  3468"}}, "geometry": {"type": "Point", "coordinates": [119.09758394782016, -42.21494204137512]}}]}